STARLINK-36373          
1 68039U 26040AA  26090.16667824 -.01826450  00000+0 -33215-1 0  9997
2 68039  97.2854  39.6118 0002118 110.6263 180.7801 15.52871025  5839
STARLINK-36711          
1 68040U 26041A   26090.08763534  .00157134  00000+0  10074-2 0  9998
2 68040  53.1575 315.5819 0000914  88.1145 271.9980 15.75303969  4591
STARLINK-36825          
1 68041U 26041B   26090.16667824  .00036475  00000+0  24161-3 0  9990
2 68041  53.1584 314.5579 0000805 106.0170 291.6365 15.75188357  5837
STARLINK-36925          
1 68042U 26041C   26090.08796078  .00296267  00000+0  18599-2 0  9990
2 68042  53.1567 315.5835 0000824  82.4453 277.6661 15.75361851  4594
STARLINK-36902          
1 68043U 26041D   26090.00002314 -.00014575  00000+0 -91117-4 0  9997
2 68043  53.1587 315.4933 0001134  45.2195  75.3055 15.75226603  5800
STARLINK-36966          
1 68044U 26041E   26089.13173614  .00214408  00000+0  13644-2 0  9994
2 68044  53.1585 320.2848 0000931  62.6191 297.4924 15.75294349  4444
STARLINK-36864          
1 68045U 26041F   26090.01965002  .00220992  00000+0  14034-2 0  9993
2 68045  53.1592 315.8682 0000928  93.6800 266.4326 15.75321172  4588
STARLINK-36321          
1 68046U 26041G   26090.05586085  .00171543  00000+0  10966-2 0  9995
2 68046  53.1571 315.3720 0000333 106.7496 253.3561 15.75324507  4593
STARLINK-36181          
1 68047U 26041H   26090.16667824  .00094507  00000+0  61579-3 0  9990
2 68047  53.1582 314.6115 0001290  50.5211 321.3816 15.75165014  5710
STARLINK-36318          
1 68048U 26041J   26090.20577186  .00205292  00000+0  13056-2 0  9998
2 68048  53.1593 314.8943 0001095 150.2179 209.8904 15.75335628  4614
STARLINK-36885          
1 68049U 26041K   26090.01511171  .00213779  00000+0  13588-2 0  9999
2 68049  53.1598 315.8371 0000812 116.3245 243.7859 15.75323676  4581
STARLINK-36945          
1 68050U 26041L   26090.10602397  .00249959  00000+0  15801-2 0  9991
2 68050  53.1589 314.9666 0001536  25.7138 334.3958 15.75339937  4605
